NORAD_CAT_ID,OBJECT_NAME,OBJECT_TYPE,EPOCH,MEAN_MOTION,ECCENTRICITY,INCLINATION,RA_OF_ASC_NODE,ARG_OF_PERICENTER,MEAN_ANOMALY,BSTAR,MEAN_MOTION_DOT,MEAN_MOTION_DDOT,TLE_LINE0,TLE_LINE1,TLE_LINE2,SEMIMAJOR_AXIS,PERIOD,APOGEE,PERIGEE,DECAYED
53535.0,STARLINK-4138,PAYLOAD,2023-05-18 20:49:58,15.08838311,9.46e-05,53.2167,359.211,85.8649,274.2451,6.5104e-05,7.49e-06,0.0,0 STARLINK-4138,1 53535U 22101J   23138.86804343  .00000749  00000-0  65104-4 0  9990,2 53535  53.2167 359.2110 0000946  85.8649 274.2451 15.08838311 41308,6917.886,95.438,540.405,539.096,0.0
53535.0,STARLINK-4138,PAYLOAD,2023-05-19 00:00:45,15.08839889,9.84e-05,53.2166,358.6163,81.1319,278.9784,7.6306e-05,9.27e-06,0.0,0 STARLINK-4138,1 53535U 22101J   23139.00052230  .00000927  00000-0  76306-4 0  9991,2 53535  53.2166 358.6163 0000984  81.1319 278.9784 15.08839889 41326,6917.881,95.438,540.426,539.065,0.0
53535.0,STARLINK-4138,PAYLOAD,2023-05-19 20:40:45,15.08843957,9.62e-05,53.217,354.7513,76.5357,283.5742,0.00011261,1.505e-05,0.0,0 STARLINK-4138,1 53535U 22101J   23139.86163923  .00001505  00000-0  11261-3 0  9998,2 53535  53.2170 354.7513 0000962  76.5357 283.5742 15.08843957 41454,6917.868,95.437,540.399,539.068,0.0
53535.0,STARLINK-4138,PAYLOAD,2023-05-20 17:20:45,15.08849973,0.0001091,53.2162,350.885,80.5948,279.5168,0.00015035,2.106e-05,0.0,0 STARLINK-4138,1 53535U 22101J   23140.72275329  .00002106  00000-0  15035-3 0  9990,2 53535  53.2162 350.8850 0001091  80.5948 279.5168 15.08849973 41586,6917.85,95.437,540.47,538.96,0.0
53535.0,STARLINK-4138,PAYLOAD,2023-05-20 20:31:31,15.0885536,0.0001031,53.2169,350.2906,86.2517,273.8593,0.00018794,2.706e-05,0.0,0 STARLINK-4138,1 53535U 22101J   23140.85522852  .00002706  00000-0  18794-3 0  9991,2 53535  53.2169 350.2906 0001031  86.2517 273.8593 15.08855360 41607,6917.833,95.437,540.412,538.985,0.0
53535.0,STARLINK-4138,PAYLOAD,2023-05-21 14:00:47,15.08836373,0.0001067,53.2155,347.0192,77.1445,282.9666,-4.9523e-05,-1.076e-05,0.0,0 STARLINK-4138,1 53535U 22101J   23141.58388330 -.00001076  00000-0 -49523-4 0  9999,2 53535  53.2155 347.0192 0001067  77.1445 282.9666 15.08836373 41718,6917.891,95.438,540.495,539.018,0.0
53535.0,STARLINK-4138,PAYLOAD,2023-05-21 20:22:20,15.08826538,8.69e-05,53.2158,345.8296,97.1739,262.9352,-0.00018269,-3.193e-05,0.0,0 STARLINK-4138,1 53535U 22101J   23141.84884834 -.00003193  00000-0 -18269-3 0  9992,2 53535  53.2158 345.8296 0000869  97.1739 262.9352 15.08826538 41755,6917.922,95.438,540.388,539.185,0.0
53535.0,STARLINK-4138,PAYLOAD,2023-05-21 23:33:06,15.08827182,8.87e-05,53.2159,345.2344,96.6492,263.4601,-0.00016072,-2.844e-05,0.0,0 STARLINK-4138,1 53535U 22101J   23141.98132928 -.00002844  00000-0 -16072-3 0  9999,2 53535  53.2159 345.2344 0000887  96.6492 263.4601 15.08827182 41775,6917.92,95.438,540.398,539.171,0.0
53535.0,STARLINK-4138,PAYLOAD,2023-05-22 20:13:06,15.08848265,8.04e-05,53.2171,341.3694,99.6115,260.4968,0.00014416,2.008e-05,0.0,0 STARLINK-4138,1 53535U 22101J   23142.84244080  .00002008  00000-0  14416-3 0  9998,2 53535  53.2171 341.3694 0000804  99.6115 260.4968 15.08848265 41901,6917.855,95.437,540.276,539.164,0.0
53535.0,STARLINK-4138,PAYLOAD,2023-05-23 02:34:39,15.08852474,8.66e-05,53.2163,340.1803,103.578,256.5309,0.00038762,5.889e-05,0.0,0 STARLINK-4138,1 53535U 22101J   23143.10740142  .00005889  00000-0  38762-3 0  9998,2 53535  53.2163 340.1803 0000866 103.5780 256.5309 15.08852474 41948,6917.842,95.437,540.306,539.108,0.0
53535.0,STARLINK-4138,PAYLOAD,2023-05-23 12:06:59,15.0883472,7.58e-05,53.2164,338.3955,97.6429,262.4649,0.00024288,3.579e-05,0.0,0 STARLINK-4138,1 53535U 22101J   23143.50485089  .00003579  00000-0  24288-3 0  9990,2 53535  53.2164 338.3955 0000758  97.6429 262.4649 15.08834720 42004,6917.897,95.438,540.286,539.237,0.0
53535.0,STARLINK-4138,PAYLOAD,2023-05-23 16:53:08,15.08849368,7.99e-05,53.2168,337.5037,99.5254,260.5829,0.00040869,6.224e-05,0.0,0 STARLINK-4138,1 53535U 22101J   23143.70356593  .00006224  00000-0  40869-3 0  9992,2 53535  53.2168 337.5037 0000799  99.5254 260.5829 15.08849368 42038,6917.852,95.437,540.269,539.164,0.0
53535.0,STARLINK-4138,PAYLOAD,2023-05-23 21:39:17,15.08852563,7.69e-05,53.2167,336.6116,97.3766,262.7314,0.00060723,9.393e-05,0.0,0 STARLINK-4138,1 53535U 22101J   23143.90228520  .00009393  00000-0  60723-3 0  9993,2 53535  53.2167 336.6116 0000769  97.3766 262.7314 15.08852563 42063,6917.842,95.437,540.239,539.175,0.0
53535.0,STARLINK-4138,PAYLOAD,2023-05-24 02:25:27,15.08841314,8.25e-05,53.2166,335.7193,92.9667,267.142,0.00019203,2.77e-05,0.0,0 STARLINK-4138,1 53535U 22101J   23144.10100720  .00002770  00000-0  19203-3 0  9996,2 53535  53.2166 335.7193 0000825  92.9667 267.1420 15.08841314 42093,6917.876,95.437,540.312,539.171,0.0
53535.0,STARLINK-4138,PAYLOAD,2023-05-24 15:08:32,15.08848544,7.86e-05,53.2164,333.3405,104.8373,255.2706,0.00058969,9.112e-05,0.0,0 STARLINK-4138,1 53535U 22101J   23144.63092629  .00009112  00000-0  58969-3 0  9991,2 53535  53.2164 333.3405 0000786 104.8373 255.2706 15.08848544 42170,6917.854,95.437,540.263,539.176,0.0
53535.0,STARLINK-4138,PAYLOAD,2023-05-25 18:10:05,15.08846903,8.02e-05,53.2161,328.2852,96.2073,263.901,0.00035729,5.404e-05,0.0,0 STARLINK-4138,1 53535U 22101J   23145.75700507  .00005404  00000-0  35729-3 0  9995,2 53535  53.2161 328.2852 0000802  96.2073 263.9010 15.08846903 42346,6917.859,95.437,540.279,539.169,0.0
53535.0,STARLINK-4138,PAYLOAD,2023-05-25 19:45:28,15.0884897,7.61e-05,53.2163,327.988,96.4676,263.6403,0.00037213,5.641e-05,0.0,0 STARLINK-4138,1 53535U 22101J   23145.82324444  .00005641  00000-0  37213-3 0  9998,2 53535  53.2163 327.9880 0000761  96.4676 263.6403 15.08848970 42350,6917.853,95.437,540.244,539.192,0.0
53535.0,STARLINK-4138,PAYLOAD,2023-05-26 18:00:52,15.0883772,7.7e-05,53.2163,323.8248,92.065,268.043,3.1209e-05,2.09e-06,0.0,0 STARLINK-4138,1 53535U 22101J   23146.75060919  .00000209  00000-0  31209-4 0  9990,2 53535  53.2163 323.8248 0000770  92.0650 268.0430 15.08837720 42492,6917.887,95.438,540.285,539.22,0.0
53535.0,STARLINK-4138,PAYLOAD,2023-05-26 21:11:38,15.08840559,7.87e-05,53.2165,323.2299,91.6063,268.5019,6.068e-05,6.78e-06,0.0,0 STARLINK-4138,1 53535U 22101J   23146.88308890  .00000678  00000-0  60680-4 0  9992,2 53535  53.2165 323.2299 0000787  91.6063 268.5019 15.08840559 42510,6917.879,95.438,540.288,539.199,0.0
53535.0,STARLINK-4138,PAYLOAD,2023-05-27 17:51:39,15.08846899,8.22e-05,53.216,319.364,84.549,275.5596,0.00017293,2.466e-05,0.0,0 STARLINK-4138,1 53535U 22101J   23147.74420615  .00002466  00000-0  17293-3 0  9996,2 53535  53.2160 319.3640 0000822  84.5490 275.5596 15.08846899 42641,6917.859,95.437,540.293,539.156,0.0
53535.0,STARLINK-4138,PAYLOAD,2023-05-28 04:59:21,15.08844871,7.67e-05,53.2161,317.283,77.9396,282.1682,0.00018179,2.607e-05,0.0,0 STARLINK-4138,1 53535U 22101J   23148.20788705  .00002607  00000-0  18179-3 0  9996,2 53535  53.2161 317.2830 0000767  77.9396 282.1682 15.08844871 42715,6917.866,95.437,540.261,539.2,0.0
53535.0,STARLINK-4138,PAYLOAD,2023-05-28 11:20:54,15.08839686,8.32e-05,53.2156,316.0941,76.6482,283.4603,8.4166e-05,1.052e-05,0.0,0 STARLINK-4138,1 53535U 22101J   23148.47284993  .00001052  00000-0  84166-4 0  9998,2 53535  53.2156 316.0941 0000832  76.6482 283.4603 15.08839686 42753,6917.881,95.438,540.322,539.171,0.0
53535.0,STARLINK-4138,PAYLOAD,2023-05-28 20:53:12,15.0884863,8.66e-05,53.2164,314.3093,80.6974,279.4116,0.00015076,2.113e-05,0.0,0 STARLINK-4138,1 53535U 22101J   23148.87028227  .00002113  00000-0  15076-3 0  9990,2 53535  53.2164 314.3093 0000866  80.6974 279.4116 15.08848630 42819,6917.854,95.437,540.318,539.12,0.0
53535.0,STARLINK-4138,PAYLOAD,2023-05-29 11:11:41,15.08835894,8.68e-05,53.2177,311.6319,89.5079,270.6013,4.3137e-05,3.99e-06,0.0,0 STARLINK-4138,1 53535U 22101J   23149.46645213  .00000399  00000-0  43137-4 0  9990,2 53535  53.2177 311.6319 0000868  89.5079 270.6013 15.08835894 42907,6917.893,95.438,540.358,539.157,0.0
53535.0,STARLINK-4138,PAYLOAD,2023-05-29 14:22:27,15.08840131,0.0001,53.2168,311.0354,103.4283,256.6821,1.0229e-05,-1.25e-06,0.0,0 STARLINK-4138,1 53535U 22101J   23149.59893009 -.00000125  00000-0  10229-4 0  9996,2 53535  53.2168 311.0354 0001000 103.4283 256.6821 15.08840131 42925,6917.88,95.438,540.437,539.053,0.0
53535.0,STARLINK-4138,PAYLOAD,2023-05-29 17:33:13,15.08840665,7.95e-05,53.2165,310.4435,82.9965,277.1118,1.271e-05,-8.5e-07,0.0,0 STARLINK-4138,1 53535U 22101J   23149.73140965 -.00000085  00000-0  12710-4 0  9990,2 53535  53.2165 310.4435 0000795  82.9965 277.1118 15.08840665 42944,6917.878,95.438,540.293,539.193,0.0
53535.0,STARLINK-4138,PAYLOAD,2023-05-30 09:27:05,15.0883686,8.98e-05,53.2176,307.4704,84.2178,275.8916,3.8647e-05,3.27e-06,0.0,0 STARLINK-4138,1 53535U 22101J   23150.39381255  .00000327  00000-0  38647-4 0  9998,2 53535  53.2176 307.4704 0000898  84.2178 275.8916 15.08836860 43041,6917.89,95.438,540.376,539.134,0.0
53535.0,STARLINK-4138,PAYLOAD,2023-05-30 15:48:37,15.0884018,8.83e-05,53.2174,306.2813,83.1456,276.9637,7.2021e-05,8.59e-06,0.0,0 STARLINK-4138,1 53535U 22101J   23150.65877038  .00000859  00000-0  72021-4 0  9990,2 53535  53.2174 306.2813 0000883  83.1456 276.9637 15.08840180 43084,6917.88,95.438,540.356,539.134,0.0
53535.0,STARLINK-4138,PAYLOAD,2023-05-31 14:04:01,15.08837984,8.56e-05,53.2173,302.1182,83.8732,276.2358,0.00011055,1.472e-05,0.0,0 STARLINK-4138,1 53535U 22101J   23151.58613264  .00001472  00000-0  11055-3 0  9993,2 53535  53.2173 302.1182 0000856  83.8732 276.2358 15.08837984 43228,6917.887,95.438,540.344,539.159,0.0
53535.0,STARLINK-4138,PAYLOAD,2023-05-31 17:14:48,15.0883786,8.88e-05,53.2174,301.5243,88.0428,272.0666,0.00014685,2.05e-05,0.0,0 STARLINK-4138,1 53535U 22101J   23151.71861200  .00002050  00000-0  14685-3 0  9998,2 53535  53.2174 301.5243 0000888  88.0428 272.0666 15.08837860 43245,6917.887,95.438,540.366,539.138,0.0
